[{"OBJECT_NAME":"STARLINK-31297","OBJECT_ID":"2024-044G","EPOCH":"2026-03-09T19:38:03.242112","MEAN_MOTION":15.27538531,"ECCENTRICITY":8.421e-5,"INCLINATION":42.9996,"RA_OF_ASC_NODE":106.4352,"ARG_OF_PERICENTER":114.0139,"MEAN_ANOMALY":246.0801,"EPHEMERIS_TYPE":0,"CLASSIFICATION_TYPE":"U","NORAD_CAT_ID":59158,"ELEMENT_SET_NO":999,"REV_AT_EPOCH":11361,"BSTAR":-3.6130173e-5,"MEAN_MOTION_DOT":-1.255e-5,"MEAN_MOTION_DDOT":0},{"OBJECT_NAME":"OBJECT A","OBJECT_ID":"2025-013A","EPOCH":"2026-03-09T23:29:31.895232","MEAN_MOTION":15.29260221,"ECCENTRICITY":0.0010321,"INCLINATION":97.6364,"RA_OF_ASC_NODE":244.5149,"ARG_OF_PERICENTER":282.3775,"MEAN_ANOMALY":77.6309,"EPHEMERIS_TYPE":0,"CLASSIFICATION_TYPE":"U","NORAD_CAT_ID":62729,"ELEMENT_SET_NO":999,"REV_AT_EPOCH":6276,"BSTAR":0.0013206527,"MEAN_MOTION_DOT":0.00037616,"MEAN_MOTION_DDOT":0}]
